NORAD_CAT_ID,OBJECT_NAME,OBJECT_TYPE,EPOCH,MEAN_MOTION,ECCENTRICITY,INCLINATION,RA_OF_ASC_NODE,ARG_OF_PERICENTER,MEAN_ANOMALY,BSTAR,MEAN_MOTION_DOT,MEAN_MOTION_DDOT,TLE_LINE0,TLE_LINE1,TLE_LINE2,SEMIMAJOR_AXIS,PERIOD,APOGEE,PERIGEE,DECAYED
49154.0,STARLINK-3068,PAYLOAD,2022-07-02 09:16:06,14.96714475,0.0003065,69.9983,68.6006,264.7212,95.3597,-6.0049e-05,-7.79e-06,0.0,0 STARLINK-3068,1 49154U 21082AA  22183.38619158 -.00000779  00000-0 -60049-4 0  9991,2 49154  69.9983  68.6006 0003065 264.7212  95.3597 14.96714475 45895,6955.193,96.211,579.19,574.9259999999998,0.0
49154.0,STARLINK-3068,PAYLOAD,2022-07-03 09:19:40,14.96721683,0.0003016,69.9983,66.0792,263.2381,96.8434,-1.2832e-05,-2.39e-06,0.0,0 STARLINK-3068,1 49154U 21082AA  22184.38866367 -.00000239  00000-0 -12832-4 0  9996,2 49154  69.9983  66.0792 0003016 263.2381  96.8434 14.96721683 46049,6955.170999999999,96.21,579.134,574.938,0.0
49154.0,STARLINK-3068,PAYLOAD,2022-07-03 22:09:34,14.96716998,0.0003037,69.9982,64.7345,262.3664,97.7149,0.00013207,1.42e-05,0.0,0 STARLINK-3068,1 49154U 21082AA  22184.92331712  .00001420  00000-0  13207-3 0  9994,2 49154  69.9982  64.7345 0003037 262.3664  97.7149 14.96716998 46129,6955.185,96.211,579.163,574.938,0.0
49154.0,STARLINK-3068,PAYLOAD,2022-07-04 09:23:15,14.96705277,0.0003083,69.9982,63.5578,262.1383,97.9425,-3.6815e-05,-5.13e-06,0.0,0 STARLINK-3068,1 49154U 21082AA  22185.39115359 -.00000513  00000-0 -36815-4 0  9998,2 49154  69.9982  63.5578 0003083 262.1383  97.9425 14.96705277 46195,6955.222,96.211,579.231,574.942,0.0
49154.0,STARLINK-3068,PAYLOAD,2022-07-04 22:13:09,14.96710359,0.0003093,69.9982,62.213,262.0817,97.999,-6.2994e-05,-8.12e-06,0.0,0 STARLINK-3068,1 49154U 21082AA  22185.92580918 -.00000812  00000-0 -62994-4 0  9993,2 49154  69.9982  62.2130 0003093 262.0817  97.9990 14.96710359 46270,6955.206,96.211,579.222,574.92,0.0
49154.0,STARLINK-3068,PAYLOAD,2022-07-05 09:26:49,14.96714054,0.0003058999999999,69.9983,61.0365,262.1292,97.9519,-3.1607e-05,-4.53e-06,0.0,0 STARLINK-3068,1 49154U 21082AA  22186.39363096 -.00000453  00000-0 -31607-4 0  9999,2 49154  69.9983  61.0365 0003059 262.1292  97.9519 14.96714054 46349,6955.195,96.211,579.187,574.932,0.0
49154.0,STARLINK-3068,PAYLOAD,2022-07-05 20:40:29,14.96716293,0.0003013999999999,69.9985,59.8601,262.4135,97.6681,-4.2267e-05,-5.75e-06,0.0,0 STARLINK-3068,1 49154U 21082AA  22186.86145417 -.00000575  00000-0 -42267-4 0  9995,2 49154  69.9985  59.8601 0003014 262.4135  97.6681 14.96716293 46411,6955.188,96.211,579.149,574.956,0.0
49154.0,STARLINK-3068,PAYLOAD,2022-07-05 23:52:58,14.96716767,0.0003058,69.9984,59.5238,262.3638,97.7173,-1.903e-05,-3.09e-06,0.0,0 STARLINK-3068,1 49154U 21082AA  22186.99511720 -.00000309  00000-0 -19030-4 0  9990,2 49154  69.9984  59.5238 0003058 262.3638  97.7173 14.96716767 46433,6955.186,96.211,579.178,574.924,0.0
49154.0,STARLINK-3068,PAYLOAD,2022-07-06 22:20:17,14.96715692,0.0003068,69.9984,57.1702,261.9915,98.0895,0.00010835,1.149e-05,0.0,0 STARLINK-3068,1 49154U 21082AA  22187.93076342  .00001149  00000-0  10835-3 0  9995,2 49154  69.9984  57.1702 0003068 261.9915  98.0895 14.96715692 46573,6955.189,96.211,579.188,574.9209999999998,0.0
49154.0,STARLINK-3068,PAYLOAD,2022-07-07 01:32:46,14.96716947,0.0003041,69.9984,56.8338,261.788,98.2934,0.00011974,1.279e-05,0.0,0 STARLINK-3068,1 49154U 21082AA  22188.06442625  .00001279  00000-0  11974-3 0  9990,2 49154  69.9984  56.8338 0003041 261.7880  98.2934 14.96716947 46596,6955.186,96.211,579.1659999999998,574.936,0.0
49154.0,STARLINK-3068,PAYLOAD,2022-07-07 20:47:37,14.96724114,0.0003043,69.9983,54.8166,261.4772,98.6041,0.00011712,1.249e-05,0.0,0 STARLINK-3068,1 49154U 21082AA  22188.86640339  .00001249  00000-0  11712-3 0  9997,2 49154  69.9983  54.8166 0003043 261.4772  98.6041 14.96724114 46713,6955.163000000001,96.21,579.145,574.9119999999998,0.0
49154.0,STARLINK-3068,PAYLOAD,2022-07-08 01:36:20,14.96724291,0.0002925,69.9983,54.3123,260.0606,100.0222,0.00011429,1.217e-05,0.0,0 STARLINK-3068,1 49154U 21082AA  22189.06689838  .00001217  00000-0  11429-3 0  9997,2 49154  69.9983  54.3123 0002925 260.0606 100.0222 14.96724291 46748,6955.163000000001,96.21,579.062,574.993,0.0
49154.0,STARLINK-3068,PAYLOAD,2022-07-08 08:01:17,14.96714967,0.0002975,69.9983,53.6402,259.7372,100.3451,-1.2904e-05,-2.39e-06,0.0,0 STARLINK-3068,1 49154U 21082AA  22189.33423444 -.00000239  00000-0 -12904-4 0  9991,2 49154  69.9983  53.6402 0002975 259.7372 100.3451 14.96714967 46780,6955.191999999999,96.211,579.126,574.988,0.0
49154.0,STARLINK-3068,PAYLOAD,2022-07-08 17:38:42,14.96722151,0.0003037,69.998,52.6312,259.8991,100.1825,1.4704e-05,7.7e-07,0.0,0 STARLINK-3068,1 49154U 21082AA  22189.73521963  .00000077  00000-0  14704-4 0  9998,2 49154  69.9980  52.6312 0003037 259.8991 100.1825 14.96722151 46848,6955.169,96.21,579.1469999999998,574.922,0.0
49154.0,STARLINK-3068,PAYLOAD,2022-07-08 20:51:11,14.96722484,0.0003041,69.9981,52.2951,259.6293,100.4522,1.8229e-05,1.17e-06,0.0,0 STARLINK-3068,1 49154U 21082AA  22189.86888264  .00000117  00000-0  18229-4 0  9993,2 49154  69.9981  52.2951 0003041 259.6293 100.4522 14.96722484 46860,6955.168000000002,96.21,579.149,574.918,0.0
49154.0,STARLINK-3068,PAYLOAD,2022-07-09 08:04:52,14.96707891,0.0003019,69.998,51.1184,259.4748,100.607,-0.0001533,-1.845e-05,0.0,0 STARLINK-3068,1 49154U 21082AA  22190.33671961 -.00001845  00000-0 -15330-3 0  9991,2 49154  69.9980  51.1184 0003019 259.4748 100.6070 14.96707891 46936,6955.214,96.211,579.178,574.979,0.0
49154.0,STARLINK-3068,PAYLOAD,2022-07-09 16:06:03,14.96713813,0.0003089,69.9977,50.2775,260.5343,99.5466,-0.00012821,-1.559e-05,0.0,0 STARLINK-3068,1 49154U 21082AA  22190.67087575 -.00001559  00000-0 -12821-3 0  9994,2 49154  69.9977  50.2775 0003089 260.5343  99.5466 14.96713813 46980,6955.195,96.211,579.2090000000002,574.9119999999998,0.0
49154.0,STARLINK-3068,PAYLOAD,2022-07-10 08:08:26,14.96709943,0.0003151,69.9979,48.5965,259.3665,100.7138,-4.736e-06,-1.46e-06,0.0,0 STARLINK-3068,1 49154U 21082AA  22191.33919640 -.00000146  00000-0 -47360-5 0  9994,2 49154  69.9979  48.5965 0003151 259.3665 100.7138 14.96709943 47088,6955.206999999999,96.211,579.264,574.881,0.0
49154.0,STARLINK-3068,PAYLOAD,2022-07-10 20:58:20,14.96713334,0.0003155,69.9982,47.2521,259.5754,100.5048,-8.0459e-06,-1.84e-06,0.0,0 STARLINK-3068,1 49154U 21082AA  22191.87385191 -.00000184  00000-0 -80459-5 0  9999,2 49154  69.9982  47.2521 0003155 259.5754 100.5048 14.96713334 47167,6955.196999999999,96.211,579.256,574.867,0.0
49154.0,STARLINK-3068,PAYLOAD,2022-07-11 08:12:00,14.96711383,0.0003216,69.9983,46.0754,260.1588,99.9207,0.00014251,1.5399999999999998e-05,0.0,0 STARLINK-3068,1 49154U 21082AA  22192.34167428  .00001540  00000-0  14251-3 0  9993,2 49154  69.9983  46.0754 0003216 260.1588  99.9207 14.96711383 47232,6955.203,96.211,579.305,574.831,0.0
49154.0,STARLINK-3068,PAYLOAD,2022-07-11 21:01:54,14.96716048,0.0003207,69.9984,44.7305,260.1053,99.9744,0.0001472,1.594e-05,0.0,0 STARLINK-3068,1 49154U 21082AA  22192.87632836  .00001594  00000-0  14720-3 0  9991,2 49154  69.9984  44.7305 0003207 260.1053  99.9744 14.96716048 47315,6955.188,96.211,579.284,574.823,0.0
49154.0,STARLINK-3068,PAYLOAD,2022-07-12 00:14:23,14.96717642,0.0003196,69.9985,44.3943,260.055,100.0248,0.0001608,1.749e-05,0.0,0 STARLINK-3068,1 49154U 21082AA  22193.00999102  .00001749  00000-0  16080-3 0  9992,2 49154  69.9985  44.3943 0003196 260.0550 100.0248 14.96717642 47334,6955.183000000001,96.211,579.271,574.826,0.0
49154.0,STARLINK-3068,PAYLOAD,2022-07-12 21:05:29,14.96717257,0.0003168,69.9985,42.209,259.8874,100.1927,6.434399999999999e-05,6.45e-06,0.0,0 STARLINK-3068,1 49154U 21082AA  22193.87880888  .00000645  00000-0  64344-4 0  9998,2 49154  69.9985  42.2090 0003168 259.8874 100.1927 14.96717257 47469,6955.185,96.211,579.253,574.846,0.0
49154.0,STARLINK-3068,PAYLOAD,2022-07-13 06:42:54,14.96717379,0.0003165,69.9984,41.2003,259.7393,100.3408,3.2682e-05,2.82e-06,0.0,0 STARLINK-3068,1 49154U 21082AA  22194.27980093  .00000282  00000-0  32682-4 0  9999,2 49154  69.9984  41.2003 0003165 259.7393 100.3408 14.96717379 47521,6955.184,96.211,579.251,574.8480000000002,0.0
49154.0,STARLINK-3068,PAYLOAD,2022-07-13 19:32:48,14.96721306,0.0003143,69.9984,39.8553,258.6764,101.4041,2.8799e-05,2.38e-06,0.0,0 STARLINK-3068,1 49154U 21082AA  22194.81445303  .00000238  00000-0  28799-4 0  9994,2 49154  69.9984  39.8553 0003143 258.6764 101.4041 14.96721306 47609,6955.172,96.21,579.2230000000002,574.851,0.0
49154.0,STARLINK-3068,PAYLOAD,2022-07-14 06:46:29,14.96708988,0.0003139,69.9983,38.6778,258.2926,101.788,-0.00013973,-1.6899999999999994e-05,0.0,0 STARLINK-3068,1 49154U 21082AA  22195.28228797 -.00001690  00000-0 -13973-3 0  9994,2 49154  69.9983  38.6778 0003139 258.2926 101.7880 14.96708988 47677,6955.21,96.211,579.259,574.8919999999998,0.0
49154.0,STARLINK-3068,PAYLOAD,2022-07-14 19:36:23,14.96708025,0.0003201,69.9982,37.3338,258.5489,101.531,-3.6108e-05,-5.05e-06,0.0,0 STARLINK-3068,1 49154U 21082AA  22195.81694376 -.00000505  00000-0 -36108-4 0  9993,2 49154  69.9982  37.3338 0003201 258.5489 101.5310 14.96708025 47758,6955.2130000000025,96.211,579.305,574.852,0.0
49154.0,STARLINK-3068,PAYLOAD,2022-07-15 00:25:06,14.96710359,0.000308,69.9982,36.8293,253.1874,106.8947,1.7439e-05,1.08e-06,0.0,0 STARLINK-3068,1 49154U 21082AA  22196.01743728  .00000108  00000-0  17439-4 0  9995,2 49154  69.9982  36.8293 0003080 253.1874 106.8947 14.96710359 47786,6955.206,96.211,579.2130000000002,574.929,0.0
49154.0,STARLINK-3068,PAYLOAD,2022-07-15 13:15:00,14.96713948,0.0003109,69.9974,35.4847,258.4818,101.5991,-1.7805e-05,-2.95e-06,0.0,0 STARLINK-3068,1 49154U 21082AA  22196.55209390 -.00000295  00000-0 -17805-4 0  9992,2 49154  69.9974  35.4847 0003109 258.4818 101.5991 14.96713948 47862,6955.195,96.211,579.222,574.898,0.0
